[{"OBJECT_NAME":"STARLINK-1816","OBJECT_ID":"2020-073AW","EPOCH":"2026-03-10T00:00:02.999808","MEAN_MOTION":15.7373021,"ECCENTRICITY":0.00013796,"INCLINATION":53.0412,"RA_OF_ASC_NODE":197.1696,"ARG_OF_PERICENTER":136.5835,"MEAN_ANOMALY":114.6456,"EPHEMERIS_TYPE":0,"CLASSIFICATION_TYPE":"U","NORAD_CAT_ID":46714,"ELEMENT_SET_NO":999,"REV_AT_EPOCH":597,"BSTAR":0.00068317035,"MEAN_MOTION_DOT":0.00098636,"MEAN_MOTION_DDOT":0},{"OBJECT_NAME":"STARLINK-11465 [DTC]","OBJECT_ID":"2024-217A","EPOCH":"2026-03-09T06:58:14.939616","MEAN_MOTION":15.69718369,"ECCENTRICITY":0.00015701,"INCLINATION":53.1571,"RA_OF_ASC_NODE":73.0201,"ARG_OF_PERICENTER":45.6999,"MEAN_ANOMALY":314.4148,"EPHEMERIS_TYPE":0,"CLASSIFICATION_TYPE":"U","NORAD_CAT_ID":62057,"ELEMENT_SET_NO":999,"REV_AT_EPOCH":7511,"BSTAR":0.0021675332,"MEAN_MOTION_DOT":0.00270851,"MEAN_MOTION_DDOT":0}]
